{
"type": "FeatureCollection",
"name": "grid_10x10",
"crs": { "type": "name", "properties": { "name": "urn:ogc:def:crs:EPSG::32612" } },
"features": [
{ "type": "Feature", "properties": { "tile": "0-0" }, "geometry": { "type": "Polygon", "coordinates": [ [ [ 407855.018662342510652, 5044275.775805150158703 ], [ 407855.018662342510652, 5044531.577475471422076 ], [ 407510.762208826374263, 5044531.577475471422076 ], [ 407510.762208826374263, 5044275.775805150158703 ], [ 407855.018662342510652, 5044275.775805150158703 ] ] ] } },
{ "type": "Feature", "properties": { "tile": "0-1" }, "geometry": { "type": "Polygon", "coordinates": [ [ [ 407855.018662342510652, 5044531.577475471422076 ], [ 407855.018662342510652, 5044787.379145792685449 ], [ 407510.762208826374263, 5044787.379145792685449 ], [ 407510.762208826374263, 5044531.577475471422076 ], [ 407855.018662342510652, 5044531.577475471422076 ] ] ] } },
{ "type": "Feature", "properties": { "tile": "0-2" }, "geometry": { "type": "Polygon", "coordinates": [ [ [ 407855.018662342510652, 5044787.379145791754127 ], [ 407855.018662342510652, 5045043.180816113017499 ], [ 407510.762208826374263, 5045043.180816113017499 ], [ 407510.762208826374263, 5044787.379145791754127 ], [ 407855.018662342510652, 5044787.379145791754127 ] ] ] } },
{ "type": "Feature", "properties": { "tile": "0-3" }, "geometry": { "type": "Polygon", "coordinates": [ [ [ 407855.018662342510652, 5045043.180816113017499 ], [ 407855.018662342510652, 5045298.982486434280872 ], [ 407510.762208826374263, 5045298.982486434280872 ], [ 407510.762208826374263, 5045043.180816113017499 ], [ 407855.018662342510652, 5045043.180816113017499 ] ] ] } },
{ "type": "Feature", "properties": { "tile": "0-4" }, "geometry": { "type": "Polygon", "coordinates": [ [ [ 407855.018662342510652, 5045298.982486434280872 ], [ 407855.018662342510652, 5045554.784156755544245 ], [ 407510.762208826374263, 5045554.784156755544245 ], [ 407510.762208826374263, 5045298.982486434280872 ], [ 407855.018662342510652, 5045298.982486434280872 ] ] ] } },
{ "type": "Feature", "properties": { "tile": "0-5" }, "geometry": { "type": "Polygon", "coordinates": [ [ [ 407855.018662342510652, 5045554.784156754612923 ], [ 407855.018662342510652, 5045810.585827075876296 ], [ 407510.762208826374263, 5045810.585827075876296 ], [ 407510.762208826374263, 5045554.784156754612923 ], [ 407855.018662342510652, 5045554.784156754612923 ] ] ] } },
{ "type": "Feature", "properties": { "tile": "0-6" }, "geometry": { "type": "Polygon", "coordinates": [ [ [ 407855.018662342510652, 5045810.585827075876296 ], [ 407855.018662342510652, 5046066.387497397139668 ], [ 407510.762208826374263, 5046066.387497397139668 ], [ 407510.762208826374263, 5045810.585827075876296 ], [ 407855.018662342510652, 5045810.585827075876296 ] ] ] } },
{ "type": "Feature", "properties": { "tile": "0-7" }, "geometry": { "type": "Polygon", "coordinates": [ [ [ 407855.018662342510652, 5046066.387497397139668 ], [ 407855.018662342510652, 5046322.189167718403041 ], [ 407510.762208826374263, 5046322.189167718403041 ], [ 407510.762208826374263, 5046066.387497397139668 ], [ 407855.018662342510652, 5046066.387497397139668 ] ] ] } },
{ "type": "Feature", "properties": { "tile": "0-8" }, "geometry": { "type": "Polygon", "coordinates": [ [ [ 407855.018662342510652, 5046322.189167718403041 ], [ 407855.018662342510652, 5046577.990838039666414 ], [ 407510.762208826374263, 5046577.990838039666414 ], [ 407510.762208826374263, 5046322.189167718403041 ], [ 407855.018662342510652, 5046322.189167718403041 ] ] ] } },
{ "type": "Feature", "properties": { "tile": "0-9" }, "geometry": { "type": "Polygon", "coordinates": [ [ [ 407855.018662342510652, 5046577.990838038735092 ], [ 407855.018662342510652, 5046833.792508359998465 ], [ 407510.762208826374263, 5046833.792508359998465 ], [ 407510.762208826374263, 5046577.990838038735092 ], [ 407855.018662342510652, 5046577.990838038735092 ] ] ] } },
{ "type": "Feature", "properties": { "tile": "1-0" }, "geometry": { "type": "Polygon", "coordinates": [ [ [ 408199.275115858647041, 5044275.775805150158703 ], [ 408199.275115858647041, 5044531.577475471422076 ], [ 407855.018662342510652, 5044531.577475471422076 ], [ 407855.018662342510652, 5044275.775805150158703 ], [ 408199.275115858647041, 5044275.775805150158703 ] ] ] } },
{ "type": "Feature", "properties": { "tile": "1-1" }, "geometry": { "type": "Polygon", "coordinates": [ [ [ 408199.275115858647041, 5044531.577475471422076 ], [ 408199.275115858647041, 5044787.379145792685449 ], [ 407855.018662342510652, 5044787.379145792685449 ], [ 407855.018662342510652, 5044531.577475471422076 ], [ 408199.275115858647041, 5044531.577475471422076 ] ] ] } },
{ "type": "Feature", "properties": { "tile": "1-2" }, "geometry": { "type": "Polygon", "coordinates": [ [ [ 408199.275115858647041, 5044787.379145791754127 ], [ 408199.275115858647041, 5045043.180816113017499 ], [ 407855.018662342510652, 5045043.180816113017499 ], [ 407855.018662342510652, 5044787.379145791754127 ], [ 408199.275115858647041, 5044787.379145791754127 ] ] ] } },
{ "type": "Feature", "properties": { "tile": "1-3" }, "geometry": { "type": "Polygon", "coordinates": [ [ [ 408199.275115858647041, 5045043.180816113017499 ], [ 408199.275115858647041, 5045298.982486434280872 ], [ 407855.018662342510652, 5045298.982486434280872 ], [ 407855.018662342510652, 5045043.180816113017499 ], [ 408199.275115858647041, 5045043.180816113017499 ] ] ] } },
{ "type": "Feature", "properties": { "tile": "1-4" }, "geometry": { "type": "Polygon", "coordinates": [ [ [ 408199.275115858647041, 5045298.982486434280872 ], [ 408199.275115858647041, 5045554.784156755544245 ], [ 407855.018662342510652, 5045554.784156755544245 ], [ 407855.018662342510652, 5045298.982486434280872 ], [ 408199.275115858647041, 5045298.982486434280872 ] ] ] } },
{ "type": "Feature", "properties": { "tile": "1-5" }, "geometry": { "type": "Polygon", "coordinates": [ [ [ 408199.275115858647041, 5045554.784156754612923 ], [ 408199.275115858647041, 5045810.585827075876296 ], [ 407855.018662342510652, 5045810.585827075876296 ], [ 407855.018662342510652, 5045554.784156754612923 ], [ 408199.275115858647041, 5045554.784156754612923 ] ] ] } },
{ "type": "Feature", "properties": { "tile": "1-6" }, "geometry": { "type": "Polygon", "coordinates": [ [ [ 408199.275115858647041, 5045810.585827075876296 ], [ 408199.275115858647041, 5046066.387497397139668 ], [ 407855.018662342510652, 5046066.387497397139668 ], [ 407855.018662342510652, 5045810.585827075876296 ], [ 408199.275115858647041, 5045810.585827075876296 ] ] ] } },
{ "type": "Feature", "properties": { "tile": "1-7" }, "geometry": { "type": "Polygon", "coordinates": [ [ [ 408199.275115858647041, 5046066.387497397139668 ], [ 408199.275115858647041, 5046322.189167718403041 ], [ 407855.018662342510652, 5046322.189167718403041 ], [ 407855.018662342510652, 5046066.387497397139668 ], [ 408199.275115858647041, 5046066.387497397139668 ] ] ] } },
{ "type": "Feature", "properties": { "tile": "1-8" }, "geometry": { "type": "Polygon", "coordinates": [ [ [ 408199.275115858647041, 5046322.189167718403041 ], [ 408199.275115858647041, 5046577.990838039666414 ], [ 407855.018662342510652, 5046577.990838039666414 ], [ 407855.018662342510652, 5046322.189167718403041 ], [ 408199.275115858647041, 5046322.189167718403041 ] ] ] } },
{ "type": "Feature", "properties": { "tile": "1-9" }, "geometry": { "type": "Polygon", "coordinates": [ [ [ 408199.275115858647041, 5046577.990838038735092 ], [ 408199.275115858647041, 5046833.792508359998465 ], [ 407855.018662342510652, 5046833.792508359998465 ], [ 407855.018662342510652, 5046577.990838038735092 ], [ 408199.275115858647041, 5046577.990838038735092 ] ] ] } },
{ "type": "Feature", "properties": { "tile": "2-0" }, "geometry": { "type": "Polygon", "coordinates": [ [ [ 408543.531569374725223, 5044275.775805150158703 ], [ 408543.531569374725223, 5044531.577475471422076 ], [ 408199.275115858588833, 5044531.577475471422076 ], [ 408199.275115858588833, 5044275.775805150158703 ], [ 408543.531569374725223, 5044275.775805150158703 ] ] ] } },
{ "type": "Feature", "properties": { "tile": "2-1" }, "geometry": { "type": "Polygon", "coordinates": [ [ [ 408543.531569374725223, 5044531.577475471422076 ], [ 408543.531569374725223, 5044787.379145792685449 ], [ 408199.275115858588833, 5044787.379145792685449 ], [ 408199.275115858588833, 5044531.577475471422076 ], [ 408543.531569374725223, 5044531.577475471422076 ] ] ] } },
{ "type": "Feature", "properties": { "tile": "2-2" }, "geometry": { "type": "Polygon", "coordinates": [ [ [ 408543.531569374725223, 5044787.379145791754127 ], [ 408543.531569374725223, 5045043.180816113017499 ], [ 408199.275115858588833, 5045043.180816113017499 ], [ 408199.275115858588833, 5044787.379145791754127 ], [ 408543.531569374725223, 5044787.379145791754127 ] ] ] } },
{ "type": "Feature", "properties": { "tile": "2-3" }, "geometry": { "type": "Polygon", "coordinates": [ [ [ 408543.531569374725223, 5045043.180816113017499 ], [ 408543.531569374725223, 5045298.982486434280872 ], [ 408199.275115858588833, 5045298.982486434280872 ], [ 408199.275115858588833, 5045043.180816113017499 ], [ 408543.531569374725223, 5045043.180816113017499 ] ] ] } },
{ "type": "Feature", "properties": { "tile": "2-4" }, "geometry": { "type": "Polygon", "coordinates": [ [ [ 408543.531569374725223, 5045298.982486434280872 ], [ 408543.531569374725223, 5045554.784156755544245 ], [ 408199.275115858588833, 5045554.784156755544245 ], [ 408199.275115858588833, 5045298.982486434280872 ], [ 408543.531569374725223, 5045298.982486434280872 ] ] ] } },
{ "type": "Feature", "properties": { "tile": "2-5" }, "geometry": { "type": "Polygon", "coordinates": [ [ [ 408543.531569374725223, 5045554.784156754612923 ], [ 408543.531569374725223, 5045810.585827075876296 ], [ 408199.275115858588833, 5045810.585827075876296 ], [ 408199.275115858588833, 5045554.784156754612923 ], [ 408543.531569374725223, 5045554.784156754612923 ] ] ] } },
{ "type": "Feature", "properties": { "tile": "2-6" }, "geometry": { "type": "Polygon", "coordinates": [ [ [ 408543.531569374725223, 5045810.585827075876296 ], [ 408543.531569374725223, 5046066.387497397139668 ], [ 408199.275115858588833, 5046066.387497397139668 ], [ 408199.275115858588833, 5045810.585827075876296 ], [ 408543.531569374725223, 5045810.585827075876296 ] ] ] } },
{ "type": "Feature", "properties": { "tile": "2-7" }, "geometry": { "type": "Polygon", "coordinates": [ [ [ 408543.531569374725223, 5046066.387497397139668 ], [ 408543.531569374725223, 5046322.189167718403041 ], [ 408199.275115858588833, 5046322.189167718403041 ], [ 408199.275115858588833, 5046066.387497397139668 ], [ 408543.531569374725223, 5046066.387497397139668 ] ] ] } },
{ "type": "Feature", "properties": { "tile": "2-8" }, "geometry": { "type": "Polygon", "coordinates": [ [ [ 408543.531569374725223, 5046322.189167718403041 ], [ 408543.531569374725223, 5046577.990838039666414 ], [ 408199.275115858588833, 5046577.990838039666414 ], [ 408199.275115858588833, 5046322.189167718403041 ], [ 408543.531569374725223, 5046322.189167718403041 ] ] ] } },
{ "type": "Feature", "properties": { "tile": "2-9" }, "geometry": { "type": "Polygon", "coordinates": [ [ [ 408543.531569374725223, 5046577.990838038735092 ], [ 408543.531569374725223, 5046833.792508359998465 ], [ 408199.275115858588833, 5046833.792508359998465 ], [ 408199.275115858588833, 5046577.990838038735092 ], [ 408543.531569374725223, 5046577.990838038735092 ] ] ] } },
{ "type": "Feature", "properties": { "tile": "3-0" }, "geometry": { "type": "Polygon", "coordinates": [ [ [ 408887.788022890861612, 5044275.775805150158703 ], [ 408887.788022890861612, 5044531.577475471422076 ], [ 408543.531569374725223, 5044531.577475471422076 ], [ 408543.531569374725223, 5044275.775805150158703 ], [ 408887.788022890861612, 5044275.775805150158703 ] ] ] } },
{ "type": "Feature", "properties": { "tile": "3-1" }, "geometry": { "type": "Polygon", "coordinates": [ [ [ 408887.788022890861612, 5044531.577475471422076 ], [ 408887.788022890861612, 5044787.379145792685449 ], [ 408543.531569374725223, 5044787.379145792685449 ], [ 408543.531569374725223, 5044531.577475471422076 ], [ 408887.788022890861612, 5044531.577475471422076 ] ] ] } },
{ "type": "Feature", "properties": { "tile": "3-2" }, "geometry": { "type": "Polygon", "coordinates": [ [ [ 408887.788022890861612, 5044787.379145791754127 ], [ 408887.788022890861612, 5045043.180816113017499 ], [ 408543.531569374725223, 5045043.180816113017499 ], [ 408543.531569374725223, 5044787.379145791754127 ], [ 408887.788022890861612, 5044787.379145791754127 ] ] ] } },
{ "type": "Feature", "properties": { "tile": "3-3" }, "geometry": { "type": "Polygon", "coordinates": [ [ [ 408887.788022890861612, 5045043.180816113017499 ], [ 408887.788022890861612, 5045298.982486434280872 ], [ 408543.531569374725223, 5045298.982486434280872 ], [ 408543.531569374725223, 5045043.180816113017499 ], [ 408887.788022890861612, 5045043.180816113017499 ] ] ] } },
{ "type": "Feature", "properties": { "tile": "3-4" }, "geometry": { "type": "Polygon", "coordinates": [ [ [ 408887.788022890861612, 5045298.982486434280872 ], [ 408887.788022890861612, 5045554.784156755544245 ], [ 408543.531569374725223, 5045554.784156755544245 ], [ 408543.531569374725223, 5045298.982486434280872 ], [ 408887.788022890861612, 5045298.982486434280872 ] ] ] } },
{ "type": "Feature", "properties": { "tile": "3-5" }, "geometry": { "type": "Polygon", "coordinates": [ [ [ 408887.788022890861612, 5045554.784156754612923 ], [ 408887.788022890861612, 5045810.585827075876296 ], [ 408543.531569374725223, 5045810.585827075876296 ], [ 408543.531569374725223, 5045554.784156754612923 ], [ 408887.788022890861612, 5045554.784156754612923 ] ] ] } },
{ "type": "Feature", "properties": { "tile": "3-6" }, "geometry": { "type": "Polygon", "coordinates": [ [ [ 408887.788022890861612, 5045810.585827075876296 ], [ 408887.788022890861612, 5046066.387497397139668 ], [ 408543.531569374725223, 5046066.387497397139668 ], [ 408543.531569374725223, 5045810.585827075876296 ], [ 408887.788022890861612, 5045810.585827075876296 ] ] ] } },
{ "type": "Feature", "properties": { "tile": "3-7" }, "geometry": { "type": "Polygon", "coordinates": [ [ [ 408887.788022890861612, 5046066.387497397139668 ], [ 408887.788022890861612, 5046322.189167718403041 ], [ 408543.531569374725223, 5046322.189167718403041 ], [ 408543.531569374725223, 5046066.387497397139668 ], [ 408887.788022890861612, 5046066.387497397139668 ] ] ] } },
{ "type": "Feature", "properties": { "tile": "3-8" }, "geometry": { "type": "Polygon", "coordinates": [ [ [ 408887.788022890861612, 5046322.189167718403041 ], [ 408887.788022890861612, 5046577.990838039666414 ], [ 408543.531569374725223, 5046577.990838039666414 ], [ 408543.531569374725223, 5046322.189167718403041 ], [ 408887.788022890861612, 5046322.189167718403041 ] ] ] } },
{ "type": "Feature", "properties": { "tile": "3-9" }, "geometry": { "type": "Polygon", "coordinates": [ [ [ 408887.788022890861612, 5046577.990838038735092 ], [ 408887.788022890861612, 5046833.792508359998465 ], [ 408543.531569374725223, 5046833.792508359998465 ], [ 408543.531569374725223, 5046577.990838038735092 ], [ 408887.788022890861612, 5046577.990838038735092 ] ] ] } },
{ "type": "Feature", "properties": { "tile": "4-0" }, "geometry": { "type": "Polygon", "coordinates": [ [ [ 409232.044476406998001, 5044275.775805150158703 ], [ 409232.044476406998001, 5044531.577475471422076 ], [ 408887.788022890861612, 5044531.577475471422076 ], [ 408887.788022890861612, 5044275.775805150158703 ], [ 409232.044476406998001, 5044275.775805150158703 ] ] ] } },
{ "type": "Feature", "properties": { "tile": "4-1" }, "geometry": { "type": "Polygon", "coordinates": [ [ [ 409232.044476406998001, 5044531.577475471422076 ], [ 409232.044476406998001, 5044787.379145792685449 ], [ 408887.788022890861612, 5044787.379145792685449 ], [ 408887.788022890861612, 5044531.577475471422076 ], [ 409232.044476406998001, 5044531.577475471422076 ] ] ] } },
{ "type": "Feature", "properties": { "tile": "4-2" }, "geometry": { "type": "Polygon", "coordinates": [ [ [ 409232.044476406998001, 5044787.379145791754127 ], [ 409232.044476406998001, 5045043.180816113017499 ], [ 408887.788022890861612, 5045043.180816113017499 ], [ 408887.788022890861612, 5044787.379145791754127 ], [ 409232.044476406998001, 5044787.379145791754127 ] ] ] } },
{ "type": "Feature", "properties": { "tile": "4-3" }, "geometry": { "type": "Polygon", "coordinates": [ [ [ 409232.044476406998001, 5045043.180816113017499 ], [ 409232.044476406998001, 5045298.982486434280872 ], [ 408887.788022890861612, 5045298.982486434280872 ], [ 408887.788022890861612, 5045043.180816113017499 ], [ 409232.044476406998001, 5045043.180816113017499 ] ] ] } },
{ "type": "Feature", "properties": { "tile": "4-4" }, "geometry": { "type": "Polygon", "coordinates": [ [ [ 409232.044476406998001, 5045298.982486434280872 ], [ 409232.044476406998001, 5045554.784156755544245 ], [ 408887.788022890861612, 5045554.784156755544245 ], [ 408887.788022890861612, 5045298.982486434280872 ], [ 409232.044476406998001, 5045298.982486434280872 ] ] ] } },
{ "type": "Feature", "properties": { "tile": "4-5" }, "geometry": { "type": "Polygon", "coordinates": [ [ [ 409232.044476406998001, 5045554.784156754612923 ], [ 409232.044476406998001, 5045810.585827075876296 ], [ 408887.788022890861612, 5045810.585827075876296 ], [ 408887.788022890861612, 5045554.784156754612923 ], [ 409232.044476406998001, 5045554.784156754612923 ] ] ] } },
{ "type": "Feature", "properties": { "tile": "4-6" }, "geometry": { "type": "Polygon", "coordinates": [ [ [ 409232.044476406998001, 5045810.585827075876296 ], [ 409232.044476406998001, 5046066.387497397139668 ], [ 408887.788022890861612, 5046066.387497397139668 ], [ 408887.788022890861612, 5045810.585827075876296 ], [ 409232.044476406998001, 5045810.585827075876296 ] ] ] } },
{ "type": "Feature", "properties": { "tile": "4-7" }, "geometry": { "type": "Polygon", "coordinates": [ [ [ 409232.044476406998001, 5046066.387497397139668 ], [ 409232.044476406998001, 5046322.189167718403041 ], [ 408887.788022890861612, 5046322.189167718403041 ], [ 408887.788022890861612, 5046066.387497397139668 ], [ 409232.044476406998001, 5046066.387497397139668 ] ] ] } },
{ "type": "Feature", "properties": { "tile": "4-8" }, "geometry": { "type": "Polygon", "coordinates": [ [ [ 409232.044476406998001, 5046322.189167718403041 ], [ 409232.044476406998001, 5046577.990838039666414 ], [ 408887.788022890861612, 5046577.990838039666414 ], [ 408887.788022890861612, 5046322.189167718403041 ], [ 409232.044476406998001, 5046322.189167718403041 ] ] ] } },
{ "type": "Feature", "properties": { "tile": "4-9" }, "geometry": { "type": "Polygon", "coordinates": [ [ [ 409232.044476406998001, 5046577.990838038735092 ], [ 409232.044476406998001, 5046833.792508359998465 ], [ 408887.788022890861612, 5046833.792508359998465 ], [ 408887.788022890861612, 5046577.990838038735092 ], [ 409232.044476406998001, 5046577.990838038735092 ] ] ] } },
{ "type": "Feature", "properties": { "tile": "5-0" }, "geometry": { "type": "Polygon", "coordinates": [ [ [ 409576.30092992313439, 5044275.775805150158703 ], [ 409576.30092992313439, 5044531.577475471422076 ], [ 409232.044476406998001, 5044531.577475471422076 ], [ 409232.044476406998001, 5044275.775805150158703 ], [ 409576.30092992313439, 5044275.775805150158703 ] ] ] } },
{ "type": "Feature", "properties": { "tile": "5-1" }, "geometry": { "type": "Polygon", "coordinates": [ [ [ 409576.30092992313439, 5044531.577475471422076 ], [ 409576.30092992313439, 5044787.379145792685449 ], [ 409232.044476406998001, 5044787.379145792685449 ], [ 409232.044476406998001, 5044531.577475471422076 ], [ 409576.30092992313439, 5044531.577475471422076 ] ] ] } },
{ "type": "Feature", "properties": { "tile": "5-2" }, "geometry": { "type": "Polygon", "coordinates": [ [ [ 409576.30092992313439, 5044787.379145791754127 ], [ 409576.30092992313439, 5045043.180816113017499 ], [ 409232.044476406998001, 5045043.180816113017499 ], [ 409232.044476406998001, 5044787.379145791754127 ], [ 409576.30092992313439, 5044787.379145791754127 ] ] ] } },
{ "type": "Feature", "properties": { "tile": "5-3" }, "geometry": { "type": "Polygon", "coordinates": [ [ [ 409576.30092992313439, 5045043.180816113017499 ], [ 409576.30092992313439, 5045298.982486434280872 ], [ 409232.044476406998001, 5045298.982486434280872 ], [ 409232.044476406998001, 5045043.180816113017499 ], [ 409576.30092992313439, 5045043.180816113017499 ] ] ] } },
{ "type": "Feature", "properties": { "tile": "5-4" }, "geometry": { "type": "Polygon", "coordinates": [ [ [ 409576.30092992313439, 5045298.982486434280872 ], [ 409576.30092992313439, 5045554.784156755544245 ], [ 409232.044476406998001, 5045554.784156755544245 ], [ 409232.044476406998001, 5045298.982486434280872 ], [ 409576.30092992313439, 5045298.982486434280872 ] ] ] } },
{ "type": "Feature", "properties": { "tile": "5-5" }, "geometry": { "type": "Polygon", "coordinates": [ [ [ 409576.30092992313439, 5045554.784156754612923 ], [ 409576.30092992313439, 5045810.585827075876296 ], [ 409232.044476406998001, 5045810.585827075876296 ], [ 409232.044476406998001, 5045554.784156754612923 ], [ 409576.30092992313439, 5045554.784156754612923 ] ] ] } },
{ "type": "Feature", "properties": { "tile": "5-6" }, "geometry": { "type": "Polygon", "coordinates": [ [ [ 409576.30092992313439, 5045810.585827075876296 ], [ 409576.30092992313439, 5046066.387497397139668 ], [ 409232.044476406998001, 5046066.387497397139668 ], [ 409232.044476406998001, 5045810.585827075876296 ], [ 409576.30092992313439, 5045810.585827075876296 ] ] ] } },
{ "type": "Feature", "properties": { "tile": "5-7" }, "geometry": { "type": "Polygon", "coordinates": [ [ [ 409576.30092992313439, 5046066.387497397139668 ], [ 409576.30092992313439, 5046322.189167718403041 ], [ 409232.044476406998001, 5046322.189167718403041 ], [ 409232.044476406998001, 5046066.387497397139668 ], [ 409576.30092992313439, 5046066.387497397139668 ] ] ] } },
{ "type": "Feature", "properties": { "tile": "5-8" }, "geometry": { "type": "Polygon", "coordinates": [ [ [ 409576.30092992313439, 5046322.189167718403041 ], [ 409576.30092992313439, 5046577.990838039666414 ], [ 409232.044476406998001, 5046577.990838039666414 ], [ 409232.044476406998001, 5046322.189167718403041 ], [ 409576.30092992313439, 5046322.189167718403041 ] ] ] } },
{ "type": "Feature", "properties": { "tile": "5-9" }, "geometry": { "type": "Polygon", "coordinates": [ [ [ 409576.30092992313439, 5046577.990838038735092 ], [ 409576.30092992313439, 5046833.792508359998465 ], [ 409232.044476406998001, 5046833.792508359998465 ], [ 409232.044476406998001, 5046577.990838038735092 ], [ 409576.30092992313439, 5046577.990838038735092 ] ] ] } },
{ "type": "Feature", "properties": { "tile": "6-0" }, "geometry": { "type": "Polygon", "coordinates": [ [ [ 409920.557383439212572, 5044275.775805150158703 ], [ 409920.557383439212572, 5044531.577475471422076 ], [ 409576.300929923076183, 5044531.577475471422076 ], [ 409576.300929923076183, 5044275.775805150158703 ], [ 409920.557383439212572, 5044275.775805150158703 ] ] ] } },
{ "type": "Feature", "properties": { "tile": "6-1" }, "geometry": { "type": "Polygon", "coordinates": [ [ [ 409920.557383439212572, 5044531.577475471422076 ], [ 409920.557383439212572, 5044787.379145792685449 ], [ 409576.300929923076183, 5044787.379145792685449 ], [ 409576.300929923076183, 5044531.577475471422076 ], [ 409920.557383439212572, 5044531.577475471422076 ] ] ] } },
{ "type": "Feature", "properties": { "tile": "6-2" }, "geometry": { "type": "Polygon", "coordinates": [ [ [ 409920.557383439212572, 5044787.379145791754127 ], [ 409920.557383439212572, 5045043.180816113017499 ], [ 409576.300929923076183, 5045043.180816113017499 ], [ 409576.300929923076183, 5044787.379145791754127 ], [ 409920.557383439212572, 5044787.379145791754127 ] ] ] } },
{ "type": "Feature", "properties": { "tile": "6-3" }, "geometry": { "type": "Polygon", "coordinates": [ [ [ 409920.557383439212572, 5045043.180816113017499 ], [ 409920.557383439212572, 5045298.982486434280872 ], [ 409576.300929923076183, 5045298.982486434280872 ], [ 409576.300929923076183, 5045043.180816113017499 ], [ 409920.557383439212572, 5045043.180816113017499 ] ] ] } },
{ "type": "Feature", "properties": { "tile": "6-4" }, "geometry": { "type": "Polygon", "coordinates": [ [ [ 409920.557383439212572, 5045298.982486434280872 ], [ 409920.557383439212572, 5045554.784156755544245 ], [ 409576.300929923076183, 5045554.784156755544245 ], [ 409576.300929923076183, 5045298.982486434280872 ], [ 409920.557383439212572, 5045298.982486434280872 ] ] ] } },
{ "type": "Feature", "properties": { "tile": "6-5" }, "geometry": { "type": "Polygon", "coordinates": [ [ [ 409920.557383439212572, 5045554.784156754612923 ], [ 409920.557383439212572, 5045810.585827075876296 ], [ 409576.300929923076183, 5045810.585827075876296 ], [ 409576.300929923076183, 5045554.784156754612923 ], [ 409920.557383439212572, 5045554.784156754612923 ] ] ] } },
{ "type": "Feature", "properties": { "tile": "6-6" }, "geometry": { "type": "Polygon", "coordinates": [ [ [ 409920.557383439212572, 5045810.585827075876296 ], [ 409920.557383439212572, 5046066.387497397139668 ], [ 409576.300929923076183, 5046066.387497397139668 ], [ 409576.300929923076183, 5045810.585827075876296 ], [ 409920.557383439212572, 5045810.585827075876296 ] ] ] } },
{ "type": "Feature", "properties": { "tile": "6-7" }, "geometry": { "type": "Polygon", "coordinates": [ [ [ 409920.557383439212572, 5046066.387497397139668 ], [ 409920.557383439212572, 5046322.189167718403041 ], [ 409576.300929923076183, 5046322.189167718403041 ], [ 409576.300929923076183, 5046066.387497397139668 ], [ 409920.557383439212572, 5046066.387497397139668 ] ] ] } },
{ "type": "Feature", "properties": { "tile": "6-8" }, "geometry": { "type": "Polygon", "coordinates": [ [ [ 409920.557383439212572, 5046322.189167718403041 ], [ 409920.557383439212572, 5046577.990838039666414 ], [ 409576.300929923076183, 5046577.990838039666414 ], [ 409576.300929923076183, 5046322.189167718403041 ], [ 409920.557383439212572, 5046322.189167718403041 ] ] ] } },
{ "type": "Feature", "properties": { "tile": "6-9" }, "geometry": { "type": "Polygon", "coordinates": [ [ [ 409920.557383439212572, 5046577.990838038735092 ], [ 409920.557383439212572, 5046833.792508359998465 ], [ 409576.300929923076183, 5046833.792508359998465 ], [ 409576.300929923076183, 5046577.990838038735092 ], [ 409920.557383439212572, 5046577.990838038735092 ] ] ] } },
{ "type": "Feature", "properties": { "tile": "7-0" }, "geometry": { "type": "Polygon", "coordinates": [ [ [ 410264.813836955348961, 5044275.775805150158703 ], [ 410264.813836955348961, 5044531.577475471422076 ], [ 409920.557383439212572, 5044531.577475471422076 ], [ 409920.557383439212572, 5044275.775805150158703 ], [ 410264.813836955348961, 5044275.775805150158703 ] ] ] } },
{ "type": "Feature", "properties": { "tile": "7-1" }, "geometry": { "type": "Polygon", "coordinates": [ [ [ 410264.813836955348961, 5044531.577475471422076 ], [ 410264.813836955348961, 5044787.379145792685449 ], [ 409920.557383439212572, 5044787.379145792685449 ], [ 409920.557383439212572, 5044531.577475471422076 ], [ 410264.813836955348961, 5044531.577475471422076 ] ] ] } },
{ "type": "Feature", "properties": { "tile": "7-2" }, "geometry": { "type": "Polygon", "coordinates": [ [ [ 410264.813836955348961, 5044787.379145791754127 ], [ 410264.813836955348961, 5045043.180816113017499 ], [ 409920.557383439212572, 5045043.180816113017499 ], [ 409920.557383439212572, 5044787.379145791754127 ], [ 410264.813836955348961, 5044787.379145791754127 ] ] ] } },
{ "type": "Feature", "properties": { "tile": "7-3" }, "geometry": { "type": "Polygon", "coordinates": [ [ [ 410264.813836955348961, 5045043.180816113017499 ], [ 410264.813836955348961, 5045298.982486434280872 ], [ 409920.557383439212572, 5045298.982486434280872 ], [ 409920.557383439212572, 5045043.180816113017499 ], [ 410264.813836955348961, 5045043.180816113017499 ] ] ] } },
{ "type": "Feature", "properties": { "tile": "7-4" }, "geometry": { "type": "Polygon", "coordinates": [ [ [ 410264.813836955348961, 5045298.982486434280872 ], [ 410264.813836955348961, 5045554.784156755544245 ], [ 409920.557383439212572, 5045554.784156755544245 ], [ 409920.557383439212572, 5045298.982486434280872 ], [ 410264.813836955348961, 5045298.982486434280872 ] ] ] } },
{ "type": "Feature", "properties": { "tile": "7-5" }, "geometry": { "type": "Polygon", "coordinates": [ [ [ 410264.813836955348961, 5045554.784156754612923 ], [ 410264.813836955348961, 5045810.585827075876296 ], [ 409920.557383439212572, 5045810.585827075876296 ], [ 409920.557383439212572, 5045554.784156754612923 ], [ 410264.813836955348961, 5045554.784156754612923 ] ] ] } },
{ "type": "Feature", "properties": { "tile": "7-6" }, "geometry": { "type": "Polygon", "coordinates": [ [ [ 410264.813836955348961, 5045810.585827075876296 ], [ 410264.813836955348961, 5046066.387497397139668 ], [ 409920.557383439212572, 5046066.387497397139668 ], [ 409920.557383439212572, 5045810.585827075876296 ], [ 410264.813836955348961, 5045810.585827075876296 ] ] ] } },
{ "type": "Feature", "properties": { "tile": "7-7" }, "geometry": { "type": "Polygon", "coordinates": [ [ [ 410264.813836955348961, 5046066.387497397139668 ], [ 410264.813836955348961, 5046322.189167718403041 ], [ 409920.557383439212572, 5046322.189167718403041 ], [ 409920.557383439212572, 5046066.387497397139668 ], [ 410264.813836955348961, 5046066.387497397139668 ] ] ] } },
{ "type": "Feature", "properties": { "tile": "7-8" }, "geometry": { "type": "Polygon", "coordinates": [ [ [ 410264.813836955348961, 5046322.189167718403041 ], [ 410264.813836955348961, 5046577.990838039666414 ], [ 409920.557383439212572, 5046577.990838039666414 ], [ 409920.557383439212572, 5046322.189167718403041 ], [ 410264.813836955348961, 5046322.189167718403041 ] ] ] } },
{ "type": "Feature", "properties": { "tile": "7-9" }, "geometry": { "type": "Polygon", "coordinates": [ [ [ 410264.813836955348961, 5046577.990838038735092 ], [ 410264.813836955348961, 5046833.792508359998465 ], [ 409920.557383439212572, 5046833.792508359998465 ], [ 409920.557383439212572, 5046577.990838038735092 ], [ 410264.813836955348961, 5046577.990838038735092 ] ] ] } },
{ "type": "Feature", "properties": { "tile": "8-0" }, "geometry": { "type": "Polygon", "coordinates": [ [ [ 410609.07029047148535, 5044275.775805150158703 ], [ 410609.07029047148535, 5044531.577475471422076 ], [ 410264.813836955348961, 5044531.577475471422076 ], [ 410264.813836955348961, 5044275.775805150158703 ], [ 410609.07029047148535, 5044275.775805150158703 ] ] ] } },
{ "type": "Feature", "properties": { "tile": "8-1" }, "geometry": { "type": "Polygon", "coordinates": [ [ [ 410609.07029047148535, 5044531.577475471422076 ], [ 410609.07029047148535, 5044787.379145792685449 ], [ 410264.813836955348961, 5044787.379145792685449 ], [ 410264.813836955348961, 5044531.577475471422076 ], [ 410609.07029047148535, 5044531.577475471422076 ] ] ] } },
{ "type": "Feature", "properties": { "tile": "8-2" }, "geometry": { "type": "Polygon", "coordinates": [ [ [ 410609.07029047148535, 5044787.379145791754127 ], [ 410609.07029047148535, 5045043.180816113017499 ], [ 410264.813836955348961, 5045043.180816113017499 ], [ 410264.813836955348961, 5044787.379145791754127 ], [ 410609.07029047148535, 5044787.379145791754127 ] ] ] } },
{ "type": "Feature", "properties": { "tile": "8-3" }, "geometry": { "type": "Polygon", "coordinates": [ [ [ 410609.07029047148535, 5045043.180816113017499 ], [ 410609.07029047148535, 5045298.982486434280872 ], [ 410264.813836955348961, 5045298.982486434280872 ], [ 410264.813836955348961, 5045043.180816113017499 ], [ 410609.07029047148535, 5045043.180816113017499 ] ] ] } },
{ "type": "Feature", "properties": { "tile": "8-4" }, "geometry": { "type": "Polygon", "coordinates": [ [ [ 410609.07029047148535, 5045298.982486434280872 ], [ 410609.07029047148535, 5045554.784156755544245 ], [ 410264.813836955348961, 5045554.784156755544245 ], [ 410264.813836955348961, 5045298.982486434280872 ], [ 410609.07029047148535, 5045298.982486434280872 ] ] ] } },
{ "type": "Feature", "properties": { "tile": "8-5" }, "geometry": { "type": "Polygon", "coordinates": [ [ [ 410609.07029047148535, 5045554.784156754612923 ], [ 410609.07029047148535, 5045810.585827075876296 ], [ 410264.813836955348961, 5045810.585827075876296 ], [ 410264.813836955348961, 5045554.784156754612923 ], [ 410609.07029047148535, 5045554.784156754612923 ] ] ] } },
{ "type": "Feature", "properties": { "tile": "8-6" }, "geometry": { "type": "Polygon", "coordinates": [ [ [ 410609.07029047148535, 5045810.585827075876296 ], [ 410609.07029047148535, 5046066.387497397139668 ], [ 410264.813836955348961, 5046066.387497397139668 ], [ 410264.813836955348961, 5045810.585827075876296 ], [ 410609.07029047148535, 5045810.585827075876296 ] ] ] } },
{ "type": "Feature", "properties": { "tile": "8-7" }, "geometry": { "type": "Polygon", "coordinates": [ [ [ 410609.07029047148535, 5046066.387497397139668 ], [ 410609.07029047148535, 5046322.189167718403041 ], [ 410264.813836955348961, 5046322.189167718403041 ], [ 410264.813836955348961, 5046066.387497397139668 ], [ 410609.07029047148535, 5046066.387497397139668 ] ] ] } },
{ "type": "Feature", "properties": { "tile": "8-8" }, "geometry": { "type": "Polygon", "coordinates": [ [ [ 410609.07029047148535, 5046322.189167718403041 ], [ 410609.07029047148535, 5046577.990838039666414 ], [ 410264.813836955348961, 5046577.990838039666414 ], [ 410264.813836955348961, 5046322.189167718403041 ], [ 410609.07029047148535, 5046322.189167718403041 ] ] ] } },
{ "type": "Feature", "properties": { "tile": "8-9" }, "geometry": { "type": "Polygon", "coordinates": [ [ [ 410609.07029047148535, 5046577.990838038735092 ], [ 410609.07029047148535, 5046833.792508359998465 ], [ 410264.813836955348961, 5046833.792508359998465 ], [ 410264.813836955348961, 5046577.990838038735092 ], [ 410609.07029047148535, 5046577.990838038735092 ] ] ] } },
{ "type": "Feature", "properties": { "tile": "9-0" }, "geometry": { "type": "Polygon", "coordinates": [ [ [ 410953.326743987563532, 5044275.775805150158703 ], [ 410953.326743987563532, 5044531.577475471422076 ], [ 410609.070290471427143, 5044531.577475471422076 ], [ 410609.070290471427143, 5044275.775805150158703 ], [ 410953.326743987563532, 5044275.775805150158703 ] ] ] } },
{ "type": "Feature", "properties": { "tile": "9-1" }, "geometry": { "type": "Polygon", "coordinates": [ [ [ 410953.326743987563532, 5044531.577475471422076 ], [ 410953.326743987563532, 5044787.379145792685449 ], [ 410609.070290471427143, 5044787.379145792685449 ], [ 410609.070290471427143, 5044531.577475471422076 ], [ 410953.326743987563532, 5044531.577475471422076 ] ] ] } },
{ "type": "Feature", "properties": { "tile": "9-2" }, "geometry": { "type": "Polygon", "coordinates": [ [ [ 410953.326743987563532, 5044787.379145791754127 ], [ 410953.326743987563532, 5045043.180816113017499 ], [ 410609.070290471427143, 5045043.180816113017499 ], [ 410609.070290471427143, 5044787.379145791754127 ], [ 410953.326743987563532, 5044787.379145791754127 ] ] ] } },
{ "type": "Feature", "properties": { "tile": "9-3" }, "geometry": { "type": "Polygon", "coordinates": [ [ [ 410953.326743987563532, 5045043.180816113017499 ], [ 410953.326743987563532, 5045298.982486434280872 ], [ 410609.070290471427143, 5045298.982486434280872 ], [ 410609.070290471427143, 5045043.180816113017499 ], [ 410953.326743987563532, 5045043.180816113017499 ] ] ] } },
{ "type": "Feature", "properties": { "tile": "9-4" }, "geometry": { "type": "Polygon", "coordinates": [ [ [ 410953.326743987563532, 5045298.982486434280872 ], [ 410953.326743987563532, 5045554.784156755544245 ], [ 410609.070290471427143, 5045554.784156755544245 ], [ 410609.070290471427143, 5045298.982486434280872 ], [ 410953.326743987563532, 5045298.982486434280872 ] ] ] } },
{ "type": "Feature", "properties": { "tile": "9-5" }, "geometry": { "type": "Polygon", "coordinates": [ [ [ 410953.326743987563532, 5045554.784156754612923 ], [ 410953.326743987563532, 5045810.585827075876296 ], [ 410609.070290471427143, 5045810.585827075876296 ], [ 410609.070290471427143, 5045554.784156754612923 ], [ 410953.326743987563532, 5045554.784156754612923 ] ] ] } },
{ "type": "Feature", "properties": { "tile": "9-6" }, "geometry": { "type": "Polygon", "coordinates": [ [ [ 410953.326743987563532, 5045810.585827075876296 ], [ 410953.326743987563532, 5046066.387497397139668 ], [ 410609.070290471427143, 5046066.387497397139668 ], [ 410609.070290471427143, 5045810.585827075876296 ], [ 410953.326743987563532, 5045810.585827075876296 ] ] ] } },
{ "type": "Feature", "properties": { "tile": "9-7" }, "geometry": { "type": "Polygon", "coordinates": [ [ [ 410953.326743987563532, 5046066.387497397139668 ], [ 410953.326743987563532, 5046322.189167718403041 ], [ 410609.070290471427143, 5046322.189167718403041 ], [ 410609.070290471427143, 5046066.387497397139668 ], [ 410953.326743987563532, 5046066.387497397139668 ] ] ] } },
{ "type": "Feature", "properties": { "tile": "9-8" }, "geometry": { "type": "Polygon", "coordinates": [ [ [ 410953.326743987563532, 5046322.189167718403041 ], [ 410953.326743987563532, 5046577.990838039666414 ], [ 410609.070290471427143, 5046577.990838039666414 ], [ 410609.070290471427143, 5046322.189167718403041 ], [ 410953.326743987563532, 5046322.189167718403041 ] ] ] } },
{ "type": "Feature", "properties": { "tile": "9-9" }, "geometry": { "type": "Polygon", "coordinates": [ [ [ 410953.326743987563532, 5046577.990838038735092 ], [ 410953.326743987563532, 5046833.792508359998465 ], [ 410609.070290471427143, 5046833.792508359998465 ], [ 410609.070290471427143, 5046577.990838038735092 ], [ 410953.326743987563532, 5046577.990838038735092 ] ] ] } }
]
}
